[{"OBJECT_NAME":"STARLINK-5877","OBJECT_ID":"2023-058AP","EPOCH":"2026-03-09T23:06:40.944960","MEAN_MOTION":15.05648727,"ECCENTRICITY":0.00017819,"INCLINATION":97.6041,"RA_OF_ASC_NODE":71.4255,"ARG_OF_PERICENTER":80.0636,"MEAN_ANOMALY":280.0792,"EPHEMERIS_TYPE":0,"CLASSIFICATION_TYPE":"U","NORAD_CAT_ID":56354,"ELEMENT_SET_NO":999,"REV_AT_EPOCH":15823,"BSTAR":5.2843646e-5,"MEAN_MOTION_DOT":7.02e-6,"MEAN_MOTION_DDOT":0},{"OBJECT_NAME":"CZ-2D DEB","OBJECT_ID":"2018-048F","EPOCH":"2026-03-09T12:09:53.706240","MEAN_MOTION":15.03119858,"ECCENTRICITY":0.00118256,"INCLINATION":98.3009,"RA_OF_ASC_NODE":268.7455,"ARG_OF_PERICENTER":183.5969,"MEAN_ANOMALY":176.5171,"EPHEMERIS_TYPE":0,"CLASSIFICATION_TYPE":"U","NORAD_CAT_ID":44619,"ELEMENT_SET_NO":999,"REV_AT_EPOCH":41667,"BSTAR":0.00065531565,"MEAN_MOTION_DOT":8.795e-5,"MEAN_MOTION_DDOT":0}]
